OBJECT_NAME,OBJECT_ID,EPOCH,MEAN_MOTION,ECCENTRICITY,INCLINATION,RA_OF_ASC_NODE,ARG_OF_PERICENTER,MEAN_ANOMALY,EPHEMERIS_TYPE,CLASSIFICATION_TYPE,NORAD_CAT_ID,ELEMENT_SET_NO,REV_AT_EPOCH,BSTAR,MEAN_MOTION_DOT,MEAN_MOTION_DDOT
PROX-1,2019-036A,2026-07-18T12:17:27.041856,14.91286428,.00062638,23.9943,264.8852,44.1497,315.9502,0,U,44339,999,37815,.55193083E-3,.592E-4,0
NPSAT1,2019-036B,2026-07-18T15:35:17.801376,14.74838720,.00072717,24.0003,12.7990,206.8340,153.1780,0,U,44340,999,37714,.35355954E-3,.2672E-4,0
FORMOSAT 7-3,2019-036E,2026-07-18T15:21:10.835136,15.10009271,.00003027,23.9998,322.0320,342.8292,17.2201,0,U,44343,999,38800,.12153798E-3,.2372E-4,0
FORMOSAT 7-1,2019-036L,2026-07-18T07:36:58.981248,14.96618521,.00008165,23.9963,182.5024,160.5916,199.4616,0,U,44349,999,38932,.85244033E-4,.1298E-4,0
FORMOSAT 7-4,2019-036M,2026-07-18T11:21:32.151456,14.96616270,.00010257,23.9970,243.5629,178.8846,181.1657,0,U,44350,999,38876,.80776346E-4,.1246E-4,0
FORMOSAT 7-2,2019-036N,2026-07-18T13:29:45.228192,14.96616698,.00005789,23.9984,297.2778,157.1300,202.9227,0,U,44351,999,38829,.88482659E-4,.1336E-4,0
FORMOSAT 7-6,2019-036Q,2026-07-18T02:17:05.072640,14.96619131,.00013493,23.9971,121.2329,101.6340,258.4313,0,U,44353,999,38645,.93168956E-4,.1391E-4,0
FORMOSAT 7-5,2019-036V,2026-07-18T06:32:41.598816,14.96599276,.00002772,23.9992,58.7906,149.5099,210.5418,0,U,44358,999,38701,.97926475E-4,.1445E-4,0
METEOR-M2 2,2019-038A,2026-07-18T13:47:05.568864,14.24373906,.00005154,98.9164,187.3259,354.6416,5.4756,0,U,44387,999,36576,.84145005E-4,.149E-5,0
GLOBAL-4,2019-054E,2026-07-18T14:11:26.052000,15.67349064,.00058744,45.0054,54.7869,218.2879,141.7602,0,U,44499,999,38528,.33624859E-3,.36983E-3,0
ZY-1 02D,2019-059A,2026-07-18T15:33:00.766656,14.35269807,.00030391,98.6706,261.2203,285.6686,74.4164,0,U,44528,999,35885,.10127751E-3,.245E-5,0
TAURUS-1 (JINNIUZUO 1),2019-059C,2026-07-18T13:46:21.900576,14.72389488,.00082878,98.6444,6.3596,204.0901,155.9918,0,U,44530,999,36326,.59752947E-3,.3731E-4,0
ZHUHAI-1 03B,2019-060C,2026-07-18T14:05:39.632064,15.55763557,.00086317,97.5565,359.0953,193.3523,166.7504,0,U,44536,999,38120,.26574284E-3,.18258E-3,0
ZHUHAI-1 03D,2019-060E,2026-07-18T15:36:28.283040,15.51478093,.00077124,97.5406,351.0068,178.5098,181.6178,0,U,44538,999,38095,.33571643E-3,.19768E-3,0
ZHUHAI-1 03E,2019-060F,2026-07-18T15:51:21.333312,15.41989357,.00044628,97.5653,350.7289,259.7558,100.3185,0,U,44539,999,38061,.21637813E-3,.9132E-4,0
GAOFEN-7,2019-072A,2026-07-18T15:19:33.373344,15.20933163,.00170572,97.5702,260.3911,299.5452,60.4083,0,U,44703,999,37242,.82078866E-4,.175E-4,0
JILIN-1 GAOFEN 2A,2019-075A,2026-07-18T14:09:20.949984,15.40065254,.00048362,97.4957,284.1306,341.2530,18.8537,0,U,44777,999,36971,.18139422E-3,.7167E-4,0
NINGXIA-1 1,2019-076A,2026-07-18T14:32:58.265088,14.02042377,.00114183,45.0068,39.4452,304.5653,55.4104,0,U,44779,999,34226,.27038141E-4,-.88E-6,0
NINGXIA-1 5,2019-076E,2026-07-18T14:50:33.094176,14.02090806,.00113446,45.0064,38.7215,295.3325,64.6334,0,U,44783,999,34218,.10558792E-3,.33E-6,0
KL-ALPHA A,2019-077A,2026-07-18T15:03:49.937184,13.56045827,.00121072,88.9228,219.1261,27.8960,332.2841,0,U,44785,999,32999,-.68685259E-4,-.36E-6,0
CARTOSAT-3,2019-081A,2026-07-18T15:21:48.293856,15.19199025,.00127128,97.4283,260.9978,47.8155,312.4157,0,U,44804,999,36824,.11307938E-3,.2316E-4,0
JILIN-1 GAOFEN 2B,2019-086A,2026-07-18T14:18:59.251104,15.21020336,.00135719,97.4866,271.3952,203.3254,156.7367,0,U,44836,999,36526,.13489877E-3,.2929E-4,0
TIANQIN 1 (CAS-6),2019-093A,2026-07-18T14:28:24.079008,14.95571442,.00098743,97.7812,283.2184,315.7675,44.2755,0,U,44879,999,35674,.11789186E-3,.125E-4,0
ETRSS-1,2019-093B,2026-07-18T16:01:11.133408,14.96022597,.00098878,97.7829,283.7698,315.7614,44.2816,0,U,44880,999,35676,.15831682E-3,.1719E-4,0
TIANYAN 01,2019-093C,2026-07-18T14:43:54.538752,14.86562759,.00132457,97.7517,271.0778,350.0904,10.0049,0,U,44881,999,35608,.56828505E-4,.45E-5,0
TIANYAN 02,2019-093D,2026-07-18T15:01:02.463744,15.05549862,.00124175,97.7931,294.7254,275.5298,84.4512,0,U,44882,999,35734,.21922528E-3,.3097E-4,0
CBERS 4A,2019-093E,2026-07-18T15:10:52.200768,14.81450484,.00016858,98.0177,267.0981,128.7117,231.4246,0,U,44883,999,35573,.14360354E-3,.1071E-4,0
WEILAI 1R,2019-093F,2026-07-18T14:11:24.053568,15.00883810,.00152384,97.7889,289.5358,296.7246,63.2418,0,U,44884,999,35713,.20676017E-3,.2575E-4,0
