PROX-1                  
1 44339U 19036A   26199.51211854  .00005920  00000+0  55193-3 0  9997
2 44339  23.9943 264.8852 0006263  44.1497 315.9502 14.91286428378150
NPSAT1                  
1 44340U 19036B   26199.64951159  .00002672  00000+0  35356-3 0  9992
2 44340  24.0003  12.7990 0007271 206.8340 153.1780 14.74838720377145
FORMOSAT 7-3            
1 44343U 19036E   26199.63970874  .00002372  00000+0  12154-3 0  9997
2 44343  23.9998 322.0320 0000302 342.8292  17.2201 15.10009271388005
FORMOSAT 7-1            
1 44349U 19036L   26199.31734932  .00001298  00000+0  85244-4 0  9998
2 44349  23.9963 182.5024 0000816 160.5916 199.4616 14.96618521389327
FORMOSAT 7-4            
1 44350U 19036M   26199.47328879  .00001246  00000+0  80776-4 0  9994
2 44350  23.9970 243.5629 0001025 178.8846 181.1657 14.96616270388762
FORMOSAT 7-2            
1 44351U 19036N   26199.56232903  .00001336  00000+0  88483-4 0  9990
2 44351  23.9984 297.2778 0000578 157.1300 202.9227 14.96616698388293
FORMOSAT 7-6            
1 44353U 19036Q   26199.09519760  .00001391  00000+0  93169-4 0  9997
2 44353  23.9971 121.2329 0001349 101.6340 258.4313 14.96619131386457
FORMOSAT 7-5            
1 44358U 19036V   26199.27270369  .00001445  00000+0  97926-4 0  9996
2 44358  23.9992  58.7906 0000277 149.5099 210.5418 14.96599276387016
METEOR-M2 2             
1 44387U 19038A   26199.57437001  .00000149  00000+0  84145-4 0  9990
2 44387  98.9164 187.3259 0000515 354.6416   5.4756 14.24373906365763
GLOBAL-4                
1 44499U 19054E   26199.59127375  .00036983  00000+0  33625-3 0  9995
2 44499  45.0054  54.7869 0005874 218.2879 141.7602 15.67349064385282
ZY-1 02D                
1 44528U 19059A   26199.64792554  .00000245  00000+0  10128-3 0  9991
2 44528  98.6706 261.2203 0003039 285.6686  74.4164 14.35269807358853
TAURUS-1 (JINNIUZUO 1)  
1 44530U 19059C   26199.57386459  .00003731  00000+0  59753-3 0  9999
2 44530  98.6444   6.3596 0008287 204.0901 155.9918 14.72389488363265
ZHUHAI-1 03B            
1 44536U 19060C   26199.58726426  .00018258  00000+0  26574-3 0  9995
2 44536  97.5565 359.0953 0008631 193.3523 166.7504 15.55763557381201
ZHUHAI-1 03D            
1 44538U 19060E   26199.65032735  .00019768  00000+0  33572-3 0  9991
2 44538  97.5406 351.0068 0007712 178.5098 181.6178 15.51478093380955
ZHUHAI-1 03E            
1 44539U 19060F   26199.66066358  .00009132  00000+0  21638-3 0  9995
2 44539  97.5653 350.7289 0004462 259.7558 100.3185 15.41989357380611
GAOFEN-7                
1 44703U 19072A   26199.63858071  .00001750  00000+0  82079-4 0  9994
2 44703  97.5702 260.3911 0017057 299.5452  60.4083 15.20933163372420
JILIN-1 GAOFEN 2A       
1 44777U 19075A   26199.58982581  .00007167  00000+0  18139-3 0  9999
2 44777  97.4957 284.1306 0004836 341.2530  18.8537 15.40065254369715
NINGXIA-1 1             
1 44779U 19076A   26199.60622992 -.00000088  00000+0  27038-4 0  9997
2 44779  45.0068  39.4452 0011418 304.5653  55.4104 14.02042377342260
NINGXIA-1 5             
1 44783U 19076E   26199.61843859  .00000033  00000+0  10559-3 0  9998
2 44783  45.0064  38.7215 0011344 295.3325  64.6334 14.02090806342189
KL-ALPHA A              
1 44785U 19077A   26199.62766131 -.00000036  00000+0 -68685-4 0  9998
2 44785  88.9228 219.1261 0012107  27.8960 332.2841 13.56045827329998
CARTOSAT-3              
1 44804U 19081A   26199.64014229  .00002316  00000+0  11308-3 0  9991
2 44804  97.4283 260.9978 0012712  47.8155 312.4157 15.19199025368247
JILIN-1 GAOFEN 2B       
1 44836U 19086A   26199.59651911  .00002929  00000+0  13490-3 0  9994
2 44836  97.4866 271.3952 0013571 203.3254 156.7367 15.21020336365262
TIANQIN 1 (CAS-6)       
1 44879U 19093A   26199.60305647  .00001250  00000+0  11789-3 0  9998
2 44879  97.7812 283.2184 0009874 315.7675  44.2755 14.95571442356742
ETRSS-1                 
1 44880U 19093B   26199.66748997  .00001719  00000+0  15832-3 0  9998
2 44880  97.7829 283.7698 0009887 315.7614  44.2816 14.96022597356767
TIANYAN 01              
1 44881U 19093C   26199.61382568  .00000450  00000+0  56829-4 0  9995
2 44881  97.7517 271.0778 0013245 350.0904  10.0049 14.86562759356080
TIANYAN 02              
1 44882U 19093D   26199.62572296  .00003097  00000+0  21923-3 0  9992
2 44882  97.7931 294.7254 0012417 275.5298  84.4512 15.05549862357341
CBERS 4A                
1 44883U 19093E   26199.63254862  .00001071  00000+0  14360-3 0  9997
2 44883  98.0177 267.0981 0001685 128.7117 231.4246 14.81450484355735
WEILAI 1R               
1 44884U 19093F   26199.59125062  .00002575  00000+0  20676-3 0  9999
2 44884  97.7889 289.5358 0015238 296.7246  63.2418 15.00883810357130
